NORAD_CAT_ID,OBJECT_NAME,OBJECT_TYPE,EPOCH,MEAN_MOTION,ECCENTRICITY,INCLINATION,RA_OF_ASC_NODE,ARG_OF_PERICENTER,MEAN_ANOMALY,BSTAR,MEAN_MOTION_DOT,MEAN_MOTION_DDOT,TLE_LINE0,TLE_LINE1,TLE_LINE2,SEMIMAJOR_AXIS,PERIOD,APOGEE,PERIGEE,DECAYED
51108.0,STARLINK-3362,PAYLOAD,2024-05-28 21:28:46,15.08855766,0.0001435,53.2185,326.1619,101.4106,258.7048,0.00015628,2.201e-05,0.0,0 STARLINK-3362,1 51108U 22005E   24149.89498055  .00002201  00000-0  15628-3 0  9992,2 51108  53.2185 326.1619 0001435 101.4106 258.7048 15.08855766130789,6917.832,95.437,540.69,538.704,0.0
51108.0,STARLINK-3362,PAYLOAD,2024-05-29 11:47:15,15.08843457,0.0001681,53.2172,323.4842,98.2586,261.8596,0.00016252,2.3e-05,0.0,0 STARLINK-3362,1 51108U 22005E   24150.49114683  .00002300  00000-0  16252-3 0  9996,2 51108  53.2172 323.4842 0001681  98.2586 261.8596 15.08843457131981,6917.87,95.437,540.898,538.572,0.0
51108.0,STARLINK-3362,PAYLOAD,2024-05-29 14:58:01,15.08843947,0.0001726,53.2177,322.8893,111.1109,249.0068,0.00014928,2.089e-05,0.0,0 STARLINK-3362,1 51108U 22005E   24150.62362579  .00002089  00000-0  14928-3 0  9992,2 51108  53.2177 322.8893 0001726 111.1109 249.0068 15.08843947130896,6917.868,95.437,540.927,538.539,0.0
51108.0,STARLINK-3362,PAYLOAD,2024-05-29 18:08:47,15.08844559,0.0001519,53.2175,322.2933,111.1542,248.9612,0.00017996,2.578e-05,0.0,0 STARLINK-3362,1 51108U 22005E   24150.75610563  .00002578  00000-0  17996-3 0  9996,2 51108  53.2175 322.2933 0001519 111.1542 248.9612 15.08844559132024,6917.866,95.437,540.782,538.681,0.0
51108.0,STARLINK-3362,PAYLOAD,2024-05-30 11:38:01,15.08845243,0.0001532,53.217,319.021,109.8202,250.2955,9.7406e-05,1.263e-05,0.0,0 STARLINK-3362,1 51108U 22005E   24151.48474495  .00001263  00000-0  97406-4 0  9994,2 51108  53.2170 319.0210 0001532 109.8202 250.2955 15.08845243132132,6917.864,95.437,540.789,538.67,0.0
51108.0,STARLINK-3362,PAYLOAD,2024-05-30 14:48:48,15.08848735,0.0001452,53.217,318.4273,107.1299,252.9852,0.00017106,2.436e-05,0.0,0 STARLINK-3362,1 51108U 22005E   24151.61722365  .00002436  00000-0  17106-3 0  9992,2 51108  53.2170 318.4273 0001452 107.1299 252.9852 15.08848735131045,6917.854,95.437,540.723,538.714,0.0
51108.0,STARLINK-3362,PAYLOAD,2024-05-30 16:24:11,15.08847526,0.0001658,53.2182,318.1333,108.3569,251.7604,0.00018317,2.629e-05,0.0,0 STARLINK-3362,1 51108U 22005E   24151.68346408  .00002629  00000-0  18317-3 0  9998,2 51108  53.2182 318.1333 0001658 108.3569 251.7604 15.08847526132166,6917.857,95.437,540.869,538.575,0.0
51108.0,STARLINK-3362,PAYLOAD,2024-05-31 11:28:49,15.08843748,0.0001452,53.2182,314.567,89.0332,271.0827,0.0001549,2.178e-05,0.0,0 STARLINK-3362,1 51108U 22005E   24152.47834602  .00002178  00000-0  15490-3 0  9992,2 51108  53.2182 314.5670 0001452  89.0332 271.0827 15.08843748132282,6917.869,95.437,540.738,538.729,0.0
51108.0,STARLINK-3362,PAYLOAD,2024-05-31 14:39:35,15.08845202,0.0001435,53.2181,313.9719,93.3374,266.7782,0.00016525,2.343e-05,0.0,0 STARLINK-3362,1 51108U 22005E   24152.61082501  .00002343  00000-0  16525-3 0  9995,2 51108  53.2181 313.9719 0001435  93.3374 266.7782 15.08845202131190,6917.864,95.437,540.722,538.737,0.0
51108.0,STARLINK-3362,PAYLOAD,2024-05-31 17:50:21,15.08846008,0.0001473,53.219,313.3783,86.139,273.9771,0.00018037,2.584e-05,0.0,0 STARLINK-3362,1 51108U 22005E   24152.74330451  .00002584  00000-0  18037-3 0  9996,2 51108  53.2190 313.3783 0001473  86.1390 273.9771 15.08846008132324,6917.862,95.437,540.746,538.708,0.0
51108.0,STARLINK-3362,PAYLOAD,2024-06-01 03:22:40,15.08838253,0.0001352,53.2177,311.5952,85.4217,274.6929,-1.3655e-06,-3.1e-06,0.0,0 STARLINK-3362,1 51108U 22005E   24153.14074754 -.00000310  00000-0 -13655-5 0  9992,2 51108  53.2177 311.5952 0001352  85.4217 274.6929 15.08838253132385,6917.886,95.438,540.686,538.815,0.0
51108.0,STARLINK-3362,PAYLOAD,2024-06-01 09:44:13,15.08836778,0.0001287,53.2171,310.4052,84.1853,275.9286,-9.1515e-06,-4.34e-06,0.0,0 STARLINK-3362,1 51108U 22005E   24153.40570919 -.00000434  00000-0 -91515-5 0  9993,2 51108  53.2171 310.4052 0001287  84.1853 275.9286 15.08836778132422,6917.89,95.438,540.646,538.865,0.0
51108.0,STARLINK-3362,PAYLOAD,2024-06-01 14:30:22,15.08832962,0.0001344,53.2179,309.5133,80.7055,279.409,-5.992e-05,-1.241e-05,0.0,0 STARLINK-3362,1 51108U 22005E   24153.60443198 -.00001241  00000-0 -59920-4 0  9993,2 51108  53.2179 309.5133 0001344  80.7055 279.4090 15.08832962131342,6917.902,95.438,540.697,538.837,0.0
51108.0,STARLINK-3362,PAYLOAD,2024-06-01 17:41:09,15.08834885,0.0001415,53.2176,308.9186,86.8611,273.2543,-2.6905e-05,-7.16e-06,0.0,0 STARLINK-3362,1 51108U 22005E   24153.73691158 -.00000716  00000-0 -26905-4 0  9991,2 51108  53.2176 308.9186 0001415  86.8611 273.2543 15.08834885132470,6917.896,95.438,540.74,538.782,0.0
51108.0,STARLINK-3362,PAYLOAD,2024-06-02 03:13:28,15.08838905,0.0001295,53.2183,307.1331,86.5191,273.5949,4.053e-05,3.57e-06,0.0,0 STARLINK-3362,1 51108U 22005E   24154.13435317  .00000357  00000-0  40530-4 0  9998,2 51108  53.2183 307.1331 0001295  86.5191 273.5949 15.08838905132534,6917.884,95.438,540.645,538.853,0.0
51108.0,STARLINK-3362,PAYLOAD,2024-06-02 09:35:00,15.08834135,0.0001323,53.2174,305.9435,89.1539,270.9604,8.4545e-05,1.058e-05,0.0,0 STARLINK-3362,1 51108U 22005E   24154.39931350  .00001058  00000-0  84545-4 0  9997,2 51108  53.2174 305.9435 0001323  89.1539 270.9604 15.08834135132576,6917.898,95.438,540.679,538.848,0.0
51108.0,STARLINK-3362,PAYLOAD,2024-06-03 03:04:15,15.08841906,0.0001264,53.2156,302.6704,76.746,283.3673,0.00015209,2.134e-05,0.0,0 STARLINK-3362,1 51108U 22005E   24155.12795165  .00002134  00000-0  15209-3 0  9997,2 51108  53.2156 302.6704 0001264  76.7460 283.3673 15.08841906132688,6917.875,95.437,540.614,538.865,0.0
51108.0,STARLINK-3362,PAYLOAD,2024-06-03 18:58:06,15.08843185,0.000141,53.2156,299.6964,80.2638,279.8514,0.00015961,2.253e-05,0.0,0 STARLINK-3362,1 51108U 22005E   24155.79035325  .00002253  00000-0  15961-3 0  9992,2 51108  53.2156 299.6964 0001410  80.2638 279.8514 15.08843185132787,6917.871,95.437,540.711,538.76,0.0
51108.0,STARLINK-3362,PAYLOAD,2024-06-04 02:55:02,15.08842494,0.0001513,53.2175,298.2113,81.1294,278.987,0.00014989,2.098e-05,0.0,0 STARLINK-3362,1 51108U 22005E   24156.12155415  .00002098  00000-0  14989-3 0  9999,2 51108  53.2175 298.2113 0001513  81.1294 278.9870 15.08842494132834,6917.873,95.437,540.784,538.691,0.0
51108.0,STARLINK-3362,PAYLOAD,2024-06-04 09:16:34,15.08848409,0.0001658,53.2153,297.022,80.6165,279.5014,1.6932e-05,-1.9e-07,0.0,0 STARLINK-3362,1 51108U 22005E   24156.38651103 -.00000019  00000-0  16932-4 0  9995,2 51108  53.2153 297.0220 0001658  80.6165 279.5014 15.08848409132870,6917.855,95.437,540.867,538.573,0.0
51108.0,STARLINK-3362,PAYLOAD,2024-06-05 12:18:09,15.08823679,0.0001425,53.2156,291.963,98.9545,261.1609,0.00068678,0.00010654,0.0,0 STARLINK-3362,1 51108U 22005E   24157.51260487  .00010654  00000-0  68678-3 0  9990,2 51108  53.2156 291.9630 0001425  98.9545 261.1609 15.08823679133046,6917.93,95.439,540.781,538.809,0.0
51108.0,STARLINK-3362,PAYLOAD,2024-06-05 18:39:40,15.08840027,0.0001614,53.2169,290.7754,88.123,271.9947,6.892e-05,8.09e-06,0.0,0 STARLINK-3362,1 51108U 22005E   24157.77755495  .00000809  00000-0  68920-4 0  9998,2 51108  53.2169 290.7754 0001614  88.1230 271.9947 15.08840027133080,6917.88,95.438,540.862,538.629,0.0
51108.0,STARLINK-3362,PAYLOAD,2024-06-06 12:08:55,15.08833339,0.0001451,53.2149,287.5019,99.3934,260.7222,-6.7829e-06,-3.96e-06,0.0,0 STARLINK-3362,1 51108U 22005E   24158.50619978 -.00000396  00000-0 -67829-5 0  9996,2 51108  53.2149 287.5019 0001451  99.3934 260.7222 15.08833339133192,6917.901,95.438,540.77,538.762,0.0
51108.0,STARLINK-3362,PAYLOAD,2024-06-06 15:19:41,15.0884224,0.0001156,53.2181,286.9096,87.0231,273.0893,0.00010552,1.392e-05,0.0,0 STARLINK-3362,1 51108U 22005E   24158.63867498  .00001392  00000-0  10552-3 0  9996,2 51108  53.2181 286.9096 0001156  87.0231 273.0893 15.08842240132104,6917.874,95.437,540.538,538.939,0.0
51108.0,STARLINK-3362,PAYLOAD,2024-06-07 08:48:56,15.08837431,0.0001201,53.2187,283.6409,94.2929,265.82,9.267e-05,1.187e-05,0.0,0 STARLINK-3362,1 51108U 22005E   24159.36731876  .00001187  00000-0  92670-4 0  9991,2 51108  53.2187 283.6409 0001201  94.2929 265.8200 15.08837431133329,6917.888,95.438,540.584,538.922,0.0
51108.0,STARLINK-3362,PAYLOAD,2024-06-07 15:10:28,15.08849007,0.0001137,53.2166,282.4497,91.5926,268.5196,0.00019322,2.789e-05,0.0,0 STARLINK-3362,1 51108U 22005E   24159.63226890  .00002789  00000-0  19322-3 0  9997,2 51108  53.2166 282.4497 0001137  91.5926 268.5196 15.08849007132252,6917.853,95.437,540.504,538.931,0.0
51108.0,STARLINK-3362,PAYLOAD,2024-06-08 15:01:14,15.08857886,0.000102,53.2172,277.9906,80.19,279.9208,0.0001933,2.791e-05,0.0,0 STARLINK-3362,1 51108U 22005E   24160.62586126  .00002791  00000-0  19330-3 0  9991,2 51108  53.2172 277.9906 0001020  80.1900 279.9208 15.08857886132401,6917.826,95.436,540.396,538.985,0.0
51108.0,STARLINK-3362,PAYLOAD,2024-06-09 00:33:32,15.08857612,5.3e-05,53.2165,276.206,24.8266,335.2752,0.00019911,2.884e-05,0.0,0 STARLINK-3362,1 51108U 22005E   24161.02329679  .00002884  00000-0  19911-3 0  9992,2 51108  53.2165 276.2060 0000530  24.8266 335.2752 15.08857612133577,6917.827,95.436,540.058,539.325,0.0
51108.0,STARLINK-3362,PAYLOAD,2024-06-09 11:41:18,15.08814133,0.0001135,53.2179,274.1251,77.5637,282.5482,-0.00020044,-3.474e-05,0.0,0 STARLINK-3362,1 51108U 22005E   24161.48702172 -.00003474  00000-0 -20044-3 0  9992,2 51108  53.2179 274.1251 0001135  77.5637 282.5482 15.08814133133643,6917.959,95.439,540.61,539.039,0.0
51108.0,STARLINK-3362,PAYLOAD,2024-06-09 16:27:28,15.08816317,0.0001354,53.2181,273.233,80.7713,279.3432,-0.00017791,-3.116e-05,0.0,0 STARLINK-3362,1 51108U 22005E   24161.68574257 -.00003116  00000-0 -17791-3 0  9993,2 51108  53.2181 273.2330 0001354  80.7713 279.3432 15.08816317133676,6917.953,95.439,540.754,538.881,0.0
